ONEWEB-0307             
1 49189U 21083D   24076.59308514  .00000070  00000+0  15623-3 0  9995
2 49189  87.8944 124.0107 0002070  99.5782 260.5581 13.13471284122946
ONEWEB-0320             
1 49190U 21083E   24076.57286805  .00000077  00000+0  16266-3 0  9994
2 49190  87.9198 139.2072 0001924 102.5663 257.5684 13.18688326121568
ONEWEB-0321             
1 49191U 21083F   24076.55794318  .00000075  00000+0  15303-3 0  9995
2 49191  87.9129  78.1456 0001698  82.0924 278.0402 13.20773312128241
ONEWEB-0322             
1 49192U 21083G   24076.58911486  .00000204  00000+0  52410-3 0  9990
2 49192  87.8944 124.0004 0001490  96.7598 263.3701 13.13468893122931
ONEWEB-0324             
1 49193U 21083H   24076.55863272  .00000004  00000+0 -21487-4 0  9997
2 49193  87.9195 139.1926 0002025 111.9515 248.1832 13.18684061121583
ONEWEB-0325             
1 49194U 21083J   24076.56339704 -.00000050  00000+0 -15840-3 0  9994
2 49194  87.9197 139.2044 0001993 100.6239 259.5118 13.18684039121598
ONEWEB-0326             
1 49195U 21083K   24076.57760122  .00000005  00000+0 -19317-4 0  9991
2 49195  87.9187 139.2013 0002503 105.7080 254.4328 13.18683640121585
